{
    "links": {
        "self": "http://www.neowsapp.com/rest/v1/neo/3518258?api_key=iIulBulltgU6a56xZRHN4H3l9WmuAYTsLGpBGhQ2"
    },
    "id": "3518258",
    "neo_reference_id": "3518258",
    "name": "(2010 HS20)",
    "designation": "2010 HS20",
    "nasa_jpl_url": "http://ssd.jpl.nasa.gov/sbdb.cgi?sstr=3518258",
    "absolute_magnitude_h": 23.3,
    "estimated_diameter": {
        "kilometers": {
            "estimated_diameter_min": 0.058150704,
            "estimated_diameter_max": 0.130028927
        },
        "meters": {
            "estimated_diameter_min": 58.1507039646,
            "estimated_diameter_max": 130.0289270043
        },
        "miles": {
            "estimated_diameter_min": 0.0361331611,
            "estimated_diameter_max": 0.0807962044
        },
        "feet": {
            "estimated_diameter_min": 190.7831555951,
            "estimated_diameter_max": 426.6041048727
        }
    },
    "is_potentially_hazardous_asteroid": false,
    "close_approach_data": [
        {
            "close_approach_date": "2010-05-05",
            "close_approach_date_full": "2010-May-05 01:55",
            "epoch_date_close_approach": 1273024500000,
            "relative_velocity": {
                "kilometers_per_second": "10.8025329024",
                "kilometers_per_hour": "38889.1184486648",
                "miles_per_hour": "24164.185849394"
            },
            "miss_distance": {
                "astronomical": "0.0775968997",
                "lunar": "30.1851939833",
                "kilometers": "11608330.913723639",
                "miles": "7213082.3547146582"
            },
            "orbiting_body": "Earth"
        },
        {
            "close_approach_date": "2115-08-07",
            "close_approach_date_full": "2115-Aug-07 16:19",
            "epoch_date_close_approach": 4594637940000,
            "relative_velocity": {
                "kilometers_per_second": "13.5492444123",
                "kilometers_per_hour": "48777.2798841648",
                "miles_per_hour": "30308.3048258023"
            },
            "miss_distance": {
                "astronomical": "0.0327671604",
                "lunar": "12.7464253956",
                "kilometers": "4901897.401788348",
                "miles": "3045897.8053132824"
            },
            "orbiting_body": "Mars"
        }
    ],
    "orbital_data": {
        "orbit_id": "14",
        "orbit_determination_date": "2017-04-06 08:57:43",
        "first_observation_date": "2010-04-20",
        "last_observation_date": "2010-05-19",
        "data_arc_in_days": 29,
        "observations_used": 48,
        "orbit_uncertainty": "7",
        "minimum_orbit_intersection": ".00193064",
        "jupiter_tisserand_invariant": "3.439",
        "epoch_osculation": "2459000.5",
        "eccentricity": ".5543018563492509",
        "semi_major_axis": "2.209801367281022",
        "inclination": "2.217525006352131",
        "ascending_node_longitude": "99.70374097217851",
        "orbital_period": "1199.853668817658",
        "perihelion_distance": ".9849043672340386",
        "perihelion_argument": "158.7595832457442",
        "aphelion_distance": "3.434698367328004",
        "perihelion_time": "2458947.824635447176",
        "mean_anomaly": "15.80453661295479",
        "mean_motion": ".3000365872571327",
        "equinox": "J2000",
        "orbit_class": {
            "orbit_class_type": "APO",
            "orbit_class_description": "Near-Earth asteroid orbits which cross the Earth’s orbit similar to that of 1862 Apollo",
            "orbit_class_range": "a (semi-major axis) > 1.0 AU; q (perihelion) < 1.017 AU"
        }
    },
    "is_sentry_object": false
}